NORAD_CAT_ID,OBJECT_NAME,OBJECT_TYPE,EPOCH,MEAN_MOTION,ECCENTRICITY,INCLINATION,RA_OF_ASC_NODE,ARG_OF_PERICENTER,MEAN_ANOMALY,BSTAR,MEAN_MOTION_DOT,MEAN_MOTION_DDOT,TLE_LINE0,TLE_LINE1,TLE_LINE2,SEMIMAJOR_AXIS,PERIOD,APOGEE,PERIGEE,DECAYED
55946.0,STARLINK-5857,PAYLOAD,2024-06-21 03:45:57,14.98329965,0.0002832,70.0003,64.0884,267.0298,93.0537,-3.1809e-05,-4.72e-06,0.0,0 STARLINK-5857,1 55946U 23037AJ  24173.15691492 -.00000472  00000-0 -31809-4 0  9998,2 55946  70.0003  64.0884 0002832 267.0298  93.0537 14.98329965 70134,6950.193,96.107,574.026,570.09,0.0
55946.0,STARLINK-5857,PAYLOAD,2024-06-21 21:23:26,14.98326691,0.000297,69.9998,62.2362,267.8513,92.2306,2.9342e-05,2.57e-06,0.0,0 STARLINK-5857,1 55946U 23037AJ  24173.89127549  .00000257  00000-0  29342-4 0  9994,2 55946  69.9998  62.2362 0002970 267.8513  92.2306 14.98326691 70246,6950.203,96.107,574.132,570.004,0.0
55946.0,STARLINK-5857,PAYLOAD,2024-06-22 02:11:50,14.98329999,0.0002976,69.9999,61.7318,268.4385,91.6433,3.3971e-05,3.12e-06,0.0,0 STARLINK-5857,1 55946U 23037AJ  24174.09155353  .00000312  00000-0  33971-4 0  9996,2 55946  69.9999  61.7318 0002976 268.4385  91.6433 14.98329999 70611,6950.193,96.107,574.126,569.99,0.0
55946.0,STARLINK-5857,PAYLOAD,2024-06-22 19:49:18,14.98328349,0.0003003,69.9998,59.8799,268.2778,91.8037,5.0314e-05,5.07e-06,0.0,0 STARLINK-5857,1 55946U 23037AJ  24174.82591404  .00000507  00000-0  50314-4 0  9994,2 55946  69.9998  59.8799 0003003 268.2778  91.8037 14.98328349 70381,6950.198,96.107,574.15,569.976,0.0
55946.0,STARLINK-5857,PAYLOAD,2024-06-23 02:13:51,14.98332184,0.000302,69.9997,59.2054,266.8561,93.2253,4.4801e-05,4.42e-06,0.0,0 STARLINK-5857,1 55946U 23037AJ  24175.09295149  .00000442  00000-0  44801-4 0  9993,2 55946  69.9997  59.2054 0003020 266.8561  93.2253 14.98332184 70761,6950.186,96.107,574.15,569.952,0.0
55946.0,STARLINK-5857,PAYLOAD,2024-06-23 15:02:55,14.98330308,0.0002955,70.0,57.8598,270.8434,89.2386,1.8862e-05,1.32e-06,0.0,0 STARLINK-5857,1 55946U 23037AJ  24175.62703325  .00000132  00000-0  18862-4 0  9996,2 55946  70.0000  57.8598 0002955 270.8434  89.2386 14.98330308 70506,6950.192,96.107,574.111,570.003,0.0
55946.0,STARLINK-5857,PAYLOAD,2024-06-23 21:27:27,14.98320654,0.0002715,70.0012,57.1853,273.4548,86.6301,0.0003591,4.193e-05,0.0,0 STARLINK-5857,1 55946U 23037AJ  24175.89406905  .00004193  00000-0  35910-3 0  9992,2 55946  70.0012  57.1853 0002715 273.4548  86.6301 14.98320654 70540,6950.222,96.108,573.974,570.2,0.0
55946.0,STARLINK-5857,PAYLOAD,2024-06-24 02:15:50,14.98347931,0.0002631,70.0006,56.6797,267.9142,92.1716,0.00021675,2.495e-05,0.0,0 STARLINK-5857,1 55946U 23037AJ  24176.09433429  .00002495  00000-0  21675-3 0  9992,2 55946  70.0006  56.6797 0002631 267.9142  92.1716 14.98347931 70919,6950.137,96.106,573.831,570.174,0.0
55946.0,STARLINK-5857,PAYLOAD,2024-06-24 19:53:20,14.98325779,0.0002872,70.0008,54.8311,263.5295,96.5538,-6.2243e-05,-8.35e-06,0.0,0 STARLINK-5857,1 55946U 23037AJ  24176.82871322 -.00000835  00000-0 -62243-4 0  9996,2 55946  70.0008  54.8311 0002872 263.5295  96.5538 14.98325779 71020,6950.206,96.107,574.067,570.075,0.0
55946.0,STARLINK-5857,PAYLOAD,2024-06-24 21:29:28,14.9832551,0.0002953,70.0002,54.6614,263.5981,96.4842,-7.1853e-05,-9.5e-06,0.0,0 STARLINK-5857,1 55946U 23037AJ  24176.89547351 -.00000950  00000-0 -71853-4 0  9990,2 55946  70.0002  54.6614 0002953 263.5981  96.4842 14.98325510 70692,6950.207,96.107,574.124,570.019,0.0
55946.0,STARLINK-5857,PAYLOAD,2024-06-25 02:17:53,14.98325216,0.0002845,70.0006,54.1578,264.1938,95.8897,-6.8348e-05,-9.08e-06,0.0,0 STARLINK-5857,1 55946U 23037AJ  24177.09575422 -.00000908  00000-0 -68348-4 0  9991,2 55946  70.0006  54.1578 0002845 264.1938  95.8897 14.98325216 70729,6950.208,96.107,574.05,570.095,0.0
55946.0,STARLINK-5857,PAYLOAD,2024-06-25 19:55:21,14.98333071,0.0003208,69.9996,52.3033,265.7903,94.289,-0.00012025,-1.528e-05,0.0,0 STARLINK-5857,1 55946U 23037AJ  24177.83011064 -.00001528  00000-0 -12025-3 0  9999,2 55946  69.9996  52.3033 0003208 265.7903  94.2890 14.98333071 71177,6950.183,96.107,574.278,569.819,0.0
55946.0,STARLINK-5857,PAYLOAD,2024-06-25 21:31:29,14.98329171,0.0003153,70.0001,52.137,264.9426,95.1374,-1.8104e-05,-3.09e-06,0.0,0 STARLINK-5857,1 55946U 23037AJ  24177.89687004 -.00000309  00000-0 -18104-4 0  9999,2 55946  70.0001  52.1370 0003153 264.9426  95.1374 14.98329171 70845,6950.195,96.107,574.252,569.869,0.0
55946.0,STARLINK-5857,PAYLOAD,2024-06-26 00:43:45,14.98339327,0.0002941,70.0,51.7985,265.1202,94.9621,-5.0103e-05,-6.91e-06,0.0,0 STARLINK-5857,1 55946U 23037AJ  24178.03038407 -.00000691  00000-0 -50103-4 0  9992,2 55946  70.0000  51.7985 0002941 265.1202  94.9621 14.98339327 71207,6950.164,96.106,574.073,569.985,0.0
55946.0,STARLINK-5857,PAYLOAD,2024-06-27 00:45:46,14.98323347,0.0002746,70.0002,49.276,265.4088,94.6758,4.5656e-05,4.52e-06,0.0,0 STARLINK-5857,1 55946U 23037AJ  24179.03179160  .00000452  00000-0  45656-4 0  9995,2 55946  70.0002  49.2760 0002746 265.4088  94.6758 14.98323347 71359,6950.213,96.107,573.987,570.17,0.0
55946.0,STARLINK-5857,PAYLOAD,2024-06-27 21:35:31,14.98322381,0.0002621,70.0005,47.085,265.3595,94.7265,1.6642e-05,1.06e-06,0.0,0 STARLINK-5857,1 55946U 23037AJ  24179.89967500  .00000106  00000-0  16642-4 0  9991,2 55946  70.0005  47.0850 0002621 265.3595  94.7265 14.98322381 71140,6950.216,96.107,573.903,570.26,0.0
55946.0,STARLINK-5857,PAYLOAD,2024-06-28 00:47:47,14.98325432,0.0002872,70.0004,46.7493,272.4677,87.6154,1.4886e-05,8.5e-07,0.0,0 STARLINK-5857,1 55946U 23037AJ  24180.03319365  .00000085  00000-0  14886-4 0  9993,2 55946  70.0004  46.7493 0002872 272.4677  87.6154 14.98325432 71504,6950.207,96.107,574.068,570.076,0.0
55946.0,STARLINK-5857,PAYLOAD,2024-06-28 20:01:23,14.98334319,0.0002981,70.0003,44.7284,272.1845,87.8972,7.6704e-05,8.22e-06,0.0,0 STARLINK-5857,1 55946U 23037AJ  24180.83430492  .00000822  00000-0  76704-4 0  9992,2 55946  70.0003  44.7284 0002981 272.1845  87.8972 14.98334319 71621,6950.18,96.107,574.116,569.973,0.0
55946.0,STARLINK-5857,PAYLOAD,2024-06-28 21:37:31,14.98335344,0.0002966,70.0002,44.56,272.1724,87.9095,8.6602e-05,9.41e-06,0.0,0 STARLINK-5857,1 55946U 23037AJ  24180.90106383  .00000941  00000-0  86602-4 0  9999,2 55946  70.0002  44.5600 0002966 272.1724  87.9095 14.98335344 71298,6950.176,96.107,574.103,569.98,0.0
55946.0,STARLINK-5857,PAYLOAD,2024-06-29 00:49:47,14.98342059,0.0002878,70.0005,44.2239,273.2131,86.8699,0.00015645,1.775e-05,0.0,0 STARLINK-5857,1 55946U 23037AJ  24181.03457695  .00001775  00000-0  15645-3 0  9993,2 55946  70.0005  44.2239 0002878 273.2131  86.8699 14.98342059 71651,6950.156,96.106,574.021,570.02,0.0
55946.0,STARLINK-5857,PAYLOAD,2024-06-29 20:03:26,14.98317863,0.0002931,70.0002,42.2058,266.8441,93.2383,-5.5852e-05,-7.59e-06,0.0,0 STARLINK-5857,1 55946U 23037AJ  24181.83571907 -.00000759  00000-0 -55852-4 0  9992,2 55946  70.0002  42.2058 0002931 266.8441  93.2383 14.98317863 71777,6950.23,96.108,574.133,570.058,0.0
55946.0,STARLINK-5857,PAYLOAD,2024-06-29 21:39:34,14.98319009,0.0003015,70.0,42.0374,260.9113,99.1705,-0.00010935,-1.397e-05,0.0,0 STARLINK-5857,1 55946U 23037AJ  24181.90247991 -.00001397  00000-0 -10935-3 0  9994,2 55946  70.0000  42.0374 0003015 260.9113  99.1705 14.98319009 71440,6950.227,96.108,574.187,569.996,0.0
55946.0,STARLINK-5857,PAYLOAD,2024-06-30 00:51:50,14.98319331,0.0002856,70.0,41.6997,265.5245,94.5588,-7.127e-05,-9.43e-06,0.0,0 STARLINK-5857,1 55946U 23037AJ  24182.03600008 -.00000943  00000-0 -71270-4 0  9997,2 55946  70.0000  41.6997 0002856 265.5245  94.5588 14.98319331 71463,6950.226,96.108,574.076,570.106,0.0
55946.0,STARLINK-5857,PAYLOAD,2024-06-30 20:05:26,14.98337459,0.0003127,69.9993,39.6781,272.7844,87.2957,-1.3912e-05,-2.59e-06,0.0,0 STARLINK-5857,1 55946U 23037AJ  24182.83710776 -.00000259  00000-0 -13912-4 0  9998,2 55946  69.9993  39.6781 0003127 272.7844  87.2957 14.98337459 71927,6950.17,96.107,574.208,569.862,0.0
55946.0,STARLINK-5857,PAYLOAD,2024-06-30 21:41:33,14.98338187,0.0002945,69.9997,39.5113,261.9416,98.1408,2.3155e-05,1.83e-06,0.0,0 STARLINK-5857,1 55946U 23037AJ  24182.90386539  .00000183  00000-0  23155-4 0  9996,2 55946  69.9997  39.5113 0002945 261.9416  98.1408 14.98338187 71595,6950.168,96.106,574.079,569.986,0.0
55946.0,STARLINK-5857,PAYLOAD,2024-07-01 07:18:21,14.98379301,0.0003284,69.9996,38.5004,242.1661,117.9165,-0.00075652,-9.12e-05,0.0,0 STARLINK-5857,1 55946U 23037AJ  24183.30441231 -.00009120  00000-0 -75652-3 0  9992,2 55946  69.9996  38.5004 0003284 242.1661 117.9165 14.98379301 71999,6950.04,96.104,574.188,569.623,0.0
55946.0,STARLINK-5857,PAYLOAD,2024-07-01 13:42:54,14.98326534,0.0002585,70.0003,37.8277,269.328,90.7583,0.00013783,1.552e-05,0.0,0 STARLINK-5857,1 55946U 23037AJ  24183.57146861  .00001552  00000-0  13783-3 0  9998,2 55946  70.0003  37.8277 0002585 269.3280  90.7583 14.98326534 71695,6950.204,96.107,573.865,570.272,0.0
55946.0,STARLINK-5857,PAYLOAD,2024-07-01 20:07:27,14.98324997,0.0002805,69.9999,37.1554,267.4525,92.6313,0.0001144,1.272e-05,0.0,0 STARLINK-5857,1 55946U 23037AJ  24183.83851047  .00001272  00000-0  11440-3 0  9993,2 55946  69.9999  37.1554 0002805 267.4525  92.6313 14.98324997 72079,6950.208,96.107,574.023,570.124,0.0
55946.0,STARLINK-5857,PAYLOAD,2024-07-01 21:43:35,14.98325387,0.0002798,69.9999,36.987,267.654,92.4299,0.00011601,1.291e-05,0.0,0 STARLINK-5857,1 55946U 23037AJ  24183.90527035  .00001291  00000-0  11601-3 0  9998,2 55946  69.9999  36.9870 0002798 267.6540  92.4299 14.98325387 71745,6950.207,96.107,574.017,570.127,0.0
55946.0,STARLINK-5857,PAYLOAD,2024-07-02 07:20:23,14.98325286,0.0002698,70.0002,35.9765,267.4843,92.6007,6.3923e-05,6.7e-06,0.0,0 STARLINK-5857,1 55946U 23037AJ  24184.30583252  .00000670  00000-0  63923-4 0  9991,2 55946  70.0002  35.9765 0002698 267.4843  92.6007 14.98325286 71802,6950.207,96.107,573.948,570.197,0.0
